PHASE 3B (AO-10)        
1 14129U 83058B   20357.22733345  .00000120  00000-0  00000-0 0  9990
2 14129  25.7382 184.3459 6075015 294.6806  15.0443  2.05870543254270
UOSAT 2 (UO-11)         
1 14781U 84021B   20359.06425200  .00000224  00000-0  33526-4 0  9995
2 14781  97.5895   1.5940 0007183 304.3209  55.7325 14.83229401980935
LUSAT (LO-19)           
1 20442U 90005G   20358.45971639  .00000026  00000-0  25931-4 0  9990
2 20442  98.7180 306.5636 0011110 323.4533  36.5892 14.32971345615625
EYESAT A (AO-27)        
1 22825U 93061C   20358.48828340  .00000007  00000-0  20895-4 0  9998
2 22825  98.9246   5.7161 0008372 180.0302 180.0881 14.30101553420839
ITAMSAT (IO-26)         
1 22826U 93061D   20359.47951988  .00000012  00000-0  22587-4 0  9990
2 22826  98.9187   6.6583 0009190 165.5482 194.5964 14.30438998421466
RADIO ROSTO (RS-15)     
1 23439U 94085A   20358.83051185 -.00000037  00000-0  15882-3 0  9994
2 23439  64.8167 299.9915 0155100   6.8199 353.4787 11.27569756 70535
JAS-2 (FO-29)           
1 24278U 96046B   20358.83280343 -.00000022  00000-0  16759-4 0  9994
2 24278  98.5873  83.9330 0349451 244.4357 112.0277 13.53101473202749
TECHSAT 1B (GO-32)      
1 25397U 98043D   20358.84893601 -.00000004  00000-0  17716-4 0  9998
2 25397  98.7512 299.0829 0000746 171.1601 188.9591 14.23697759166729
ISS (ZARYA)             
1 25544U 98067A   20359.58858723  .00001642  00000-0  37653-4 0  9996
2 25544  51.6448 126.3614 0001414 156.6969 295.3230 15.49222338261535
PCSAT (NO-44)           
1 26931U 01043C   20358.77097305 -.00000008  00000-0  28565-4 0  9994
2 26931  67.0518  13.8315 0007371 273.4145  86.6113 14.30600043  4229
SAUDISAT 1C (SO-50)     
1 27607U 02058C   20359.52988164  .00000092  00000-0  33654-4 0  9995
2 27607  64.5541 153.2164 0029747 101.2718 259.1730 14.75694774968903
CUTE-1 (CO-55)          
1 27844U 03031E   20358.60474126  .00000076  00000-0  53966-4 0  9996
2 27844  98.6818   3.4809 0009125 223.6924 136.3532 14.22277441907021
CUBESAT XI-IV (CO-57)   
1 27848U 03031J   20358.54588254  .00000059  00000-0  46829-4 0  9992
2 27848  98.6878   3.9906 0008865 237.7622 122.2697 14.21858966906846
MOZHAYETS 4 (RS-22)     
1 27939U 03042A   20359.42571124  .00000177  00000-0  40337-4 0  9990
2 27939  98.1156 132.0396 0014228 111.9902 248.2818 14.66926102921862
CUBESAT XI-V            
1 28895U 05043F   20358.35019408  .00000207  00000-0  48469-4 0  9996
2 28895  98.0342 129.7261 0017639  48.6361 311.6355 14.63844811808248
CUTE-1.7+APD II (CO-65) 
1 32785U 08021C   20359.10024860  .00000482  00000-0  57390-4 0  9998
2 32785  97.5921 338.9774 0011932 219.6801 140.3545 14.88595284686156
DELFI-C3 (DO-64)        
1 32789U 08021G   20358.84886119  .00003061  00000-0  20092-3 0  9999
2 32789  97.3983  34.8528 0012566  33.0454 327.1558 15.08311289690452
SEEDS II (CO-66)        
1 32791U 08021J   20359.50916895  .00000737  00000-0  79400-4 0  9996
2 32791  97.5553 345.4272 0013020 182.6883 177.4268 14.91224290686781
YUBILEINY (RS-30)       
1 32953U 08025A   20359.49874131  .00000028  00000-0  12906-3 0  9994
2 32953  82.5016 159.7390 0019197   0.6722 359.4381 12.43099126571243
KKS-1 (KISEKI)          
1 33499U 09002H   20359.52614968  .00000178  00000-0  33981-4 0  9993
2 33499  98.2908 219.3266 0007996 235.0605 124.9853 14.75598387641041
SWISSCUBE               
1 35932U 09051B   20359.51938536  .00000185  00000-0  52647-4 0  9998
2 35932  98.6067 187.9460 0006518 263.8785  96.1670 14.56467463597538
BEESAT-1                
1 35933U 09051C   20358.53068553  .00000170  00000-0  49128-4 0  9997
2 35933  98.6046 188.7853 0004727 283.5106  76.5564 14.56533629597506
ITUPSAT1                
1 35935U 09051E   20359.53027835  .00000147  00000-0  44757-4 0  9995
2 35935  98.6151 189.9875 0007035 279.0609  80.9791 14.55672900597354
XIWANG-1 (HOPE-1)       
1 36122U 09072B   20358.73206816 -.00000052  00000-0 -26288-4 0  9992
2 36122 100.1123 340.8475 0007872 143.6673 216.4977 13.16357970529777
JUGNU                   
1 37839U 11058B   20358.72317241  .00000304  00000-0  20291-4 0  9995
2 37839  19.9596 214.9453 0018855 314.9282 109.5865 14.12698387475699
SRMSAT                  
1 37841U 11058D   20359.51564193  .00000314  00000-0  27406-4 0  9992
2 37841  19.9721 278.4012 0011981 171.4186 346.4007 14.10681348475136
M-CUBED & EXP-1 PRIME   
1 37855U 11061F   20358.45338161  .00003790  00000-0  19046-3 0  9998
2 37855 101.7264 184.5700 0168923 233.8371 124.7114 15.06958248499664
STRAND-1                
1 39090U 13009E   20359.55308211  .00000064  00000-0  37543-4 0  9994
2 39090  98.4376 199.7357 0010273  80.4102 279.8244 14.35160193409977
SOMP                    
1 39134U 13015E   20359.48716363  .00002939  00000-0  13760-3 0  9990
2 39134  64.8647  21.0982 0015162 220.3104 139.6902 15.21772901424966
BEESAT-3                
1 39135U 13015F   20358.86386126  .00002458  00000-0  12673-3 0  9990
2 39135  64.8685  49.5047 0021182 210.7409 149.2479 15.18743301424364
BEESAT-2                
1 39136U 13015G   20358.59178286  .00002468  00000-0  12869-3 0  9995
2 39136  64.8774  56.0682 0031243 264.4255  95.3308 15.18128612424214
ZACUBE-1 (TSHEPISOSAT)  
1 39417U 13066B   20359.51463504  .00000490  00000-0  67279-4 0  9995
2 39417  97.5775 347.0907 0059166  16.1353 344.1727 14.81390584383175
GOMX-1                  
1 39430U 13066Q   20359.37450655  .00000357  00000-0  73808-4 0  9994
2 39430  97.8069 286.5649 0149838 306.7247  52.0265 14.59508847377505
CUBEBUG-2 (LO-74)       
1 39440U 13066AA  20359.50332218  .00000420  00000-0  64692-4 0  9996
2 39440  97.6540 331.7380 0081440  83.3518 277.6954 14.76123029381819
FUNCUBE-1 (AO-73)       
1 39444U 13066AE  20359.53673051  .00000611  00000-0  80658-4 0  9998
2 39444  97.5698 349.4301 0058038   7.4220 352.7839 14.82271390382112
UWE-3                   
1 39446U 13066AG  20359.50494754  .00000482  00000-0  69815-4 0  9996
2 39446  97.6173 338.8317 0070987  50.6070 310.1400 14.78658234381248
SPROUT                  
1 39770U 14029E   20359.53424874  .00001056  00000-0  12087-3 0  9991
2 39770  97.9048 105.1564 0009951  67.0339 293.1936 14.88081510357328
UNISAT-6                
1 40012U 14033C   20358.64493701  .00000316  00000-0  53746-4 0  9999
2 40012  97.6879 204.1443 0059487 108.3820 252.3871 14.74213353350298
DUCHIFAT-1              
1 40021U 14033M   20359.40437850  .00000709  00000-0  77276-4 0  9997
2 40021  97.9578 291.9370 0013569  27.0009 333.1912 14.91114930354194
QB50P1                  
1 40025U 14033R   20359.06924716  .00000593  00000-0  68564-4 0  9996
2 40025  97.9244 283.4135 0013398  40.4536 319.7675 14.89284634353828
NUDT-PHONESAT           
1 40900U 15049B   20359.48507843  .00004073  00000-0  16507-3 0  9996
2 40900  97.4277   8.8564 0013465  41.4864 115.4701 15.25145737292145
ZDPS 2A                 
1 40901U 15049C   20359.46198363  .00002049  00000-0  10142-3 0  9998
2 40901  97.4630   2.7258 0014900  73.4217  84.8677 15.18847092291408
ZDPS 2B                 
1 40902U 15049D   20359.50393015  .00002049  00000-0  10139-3 0  9991
2 40902  97.4644   0.0460 0014890  71.0125  54.3037 15.18857122291384
XW-2A                   
1 40903U 15049E   20359.46672304  .00003793  00000-0  84798-4 0  9998
2 40903  97.2632  48.3624 0011063 296.2133 188.0652 15.44075190295788
KAITUO 1A               
1 40904U 15049F   20359.45637735  .00000736  00000-0  41780-4 0  9995
2 40904  97.4824 357.6982 0016164  84.9321  71.2074 15.15930848291027
2015-049G               
1 40905U 15049G   20359.48732096  .00000681  00000-0  40159-4 0  9993
2 40905  97.4935 354.8568 0017311  83.2284  67.8869 15.14760183290849
XW-2C                   
1 40906U 15049H   20359.46041469  .00001164  00000-0  63251-4 0  9994
2 40906  97.4825 358.0968 0016361  76.0228  79.2069 15.16381184291044
XW-2D                   
1 40907U 15049J   20359.48821649  .00001322  00000-0  70823-4 0  9992
2 40907  97.4821 357.8669 0015758  73.0348  77.9370 15.16654163291078
LILACSAT-2              
1 40908U 15049K   20359.45472367  .00000620  00000-0  37422-4 0  9997
2 40908  97.4985 355.9263 0017502  85.1420  69.9123 15.14226184290749
XW-2F                   
1 40910U 15049M   20359.46659228  .00001953  00000-0  97878-4 0  9995
2 40910  97.4715   0.6964 0016086  62.6636  99.4412 15.18442710291165
XW-2B                   
1 40911U 15049N   20359.48191969  .00001401  00000-0  75034-4 0  9999
2 40911  97.4822 358.5581 0015672  74.2713  78.0191 15.16576619290968
KAITUO 1B               
1 40912U 15049P   20359.48643022  .00002248  00000-0  10456-3 0  9998
2 40912  97.4476   5.0196 0015669  39.8421 114.0100 15.20902139291595
TIANWANG 1C (TW-1C)     
1 40926U 15051B   20359.46847926  .00131697  00000-0  61280-3 0  9995
2 40926  97.0546  53.7073 0004112  92.4052  35.4055 15.82999061296862
TIANWANG 1A (TW-1A)     
1 40928U 15051D   20359.46274466  .00005525  00000-0  12268-3 0  9992
2 40928  97.0935  22.6300 0009059 203.5123 266.3921 15.44063686294670
LAPAN-A2                
1 40931U 15052B   20357.58746474  .00000641  00000-0  19804-6 0  9991
2 40931   5.9972  73.6973 0013200  55.9615 304.1765 14.76655668283118
E-ST@R-II               
1 41459U 16025D   20359.59528643  .00002556  00000-0  13055-3 0  9993
2 41459  98.1202 119.7748 0161441 291.8043  66.6082 15.07142561256078
AAUSAT 4                
1 41460U 16025E   20359.29313697  .00003828  00000-0  18608-3 0  9995
2 41460  98.1194 122.5145 0149813 279.1219  79.3165 15.09762704256270
NUSAT-1 (FRESCO)        
1 41557U 16033B   20359.47857778  .00002515  00000-0  92665-4 0  9992
2 41557  97.3993  88.4919 0014445 130.7119 358.0994 15.28672490254792
BEESAT-4                
1 41619U 16040W   20359.40798683  .00003117  00000-0  12879-3 0  9998
2 41619  97.2968  54.2446 0009729 223.1970 136.8506 15.24696208238331
